$$SOE
2460721.500000000, A.D. 2025-Feb-15 00:00:00.0000, 1.911872589437574E+08, 1.610957662270053E+08, -5.330525512965140E+07,
2460728.500000000, A.D. 2025-Feb-22 00:00:00.0000, 1.830172232272198E+08, 1.683589067536964E+08, -4.423410870565832E+07,
2460735.500000000, A.D. 2025-Mar-01 00:00:00.0000, 1.742960318519889E+08, 1.751148214390956E+08, -3.502987563951399E+07,
2460742.500000000, A.D. 2025-Mar-08 00:00:00.0000, 1.650305771886921E+08, 1.813236780772102E+08, -2.571639447400229E+07,
2460749.500000000, A.D. 2025-Mar-15 00:00:00.0000, 1.552306737121894E+08, 1.869450551537125E+08, -1.631978371480802E+07,
2460756.500000000, A.D. 2025-Mar-22 00:00:00.0000, 1.449093761674254E+08, 1.919382196463683E+08, -6.868527290181562E+06,
2460763.500000000, A.D. 2025-Mar-29 00:00:00.0000, 1.340833046304773E+08, 1.962624635783408E+08, 2.606465193326414E+06,
2460770.500000000, A.D. 2025-Apr-05 00:00:00.0000, 1.227729685828965E+08, 1.998775074035877E+08, 1.207183162372935E+07,
2460777.500000000, A.D. 2025-Apr-12 00:00:00.0000, 1.110030775632108E+08, 2.027439738427249E+08, 2.149177303893384E+07,
2460784.500000000, A.D. 2025-Apr-19 00:00:00.0000, 9.880282530456573E+07, 2.048239326850046E+08, 3.082812119170365E+07,
2460791.500000000, A.D. 2025-Apr-26 00:00:00.0000, 8.620613235515425E+07, 2.060815148256730E+08, 4.004046768286668E+07,
2460798.500000000, A.D. 2025-May-03 00:00:00.0000, 7.325182988316983E+07, 2.064835902606849E+08, 4.908636400496870E+07,
2460805.500000000, A.D. 2025-May-10 00:00:00.0000, 5.998376566171304E+07, 2.060005001643924E+08, 5.792160075132557E+07,
2460812.500000000, A.D. 2025-May-17 00:00:00.0000, 4.645081246301395E+07, 2.046068278551790E+08, 6.650057223840403E+07,
2460819.500000000, A.D. 2025-May-24 00:00:00.0000, 3.270675965976254E+07, 2.022821877494408E+08, 7.477672974725719E+07,
2460826.500000000, A.D. 2025-May-31 00:00:00.0000, 1.881007105606515E+07, 1.990120060773463E+08, 8.270312250820491E+07,
2460833.500000000, A.D. 2025-Jun-07 00:00:00.0000, 4.823494966046254E+06, 1.947882629026764E+08, 9.023302064361385E+07,
2460840.500000000, A.D. 2025-Jun-14 00:00:00.0000, -9.186483607065801E+06, 1.896101591918544E+08, 9.732060848849010E+07,
2460847.500000000, A.D. 2025-Jun-21 00:00:00.0000, -2.315034765602950E+07, 1.834846680690053E+08, 1.039217299596542E+08,
2460854.500000000, A.D. 2025-Jun-28 00:00:00.0000, -3.699639766032070E+07, 1.764269351753437E+08, 1.099946620040753E+08,
2460861.500000000, A.D. 2025-Jul-05 00:00:00.0000, -5.065172837428211E+07, 1.684604972259402E+08, 1.155008876018403E+08,
2460868.500000000, A.D. 2025-Jul-12 00:00:00.0000, -6.404330510814565E+07, 1.596172918922341E+08, 1.204058360464501E+08,
2460875.500000000, A.D. 2025-Jul-19 00:00:00.0000, -7.709910147990501E+07, 1.499374424572118E+08, 1.246795569078443E+08,
2460882.500000000, A.D. 2025-Jul-26 00:00:00.0000, -8.974925395557272E+07, 1.394688136375689E+08, 1.282972955602217E+08,
2460889.500000000, A.D. 2025-Aug-02 00:00:00.0000, -1.019271851585725E+08, 1.282663487053604E+08, 1.312399423589686E+08,
2460896.500000000, A.D. 2025-Aug-09 00:00:00.0000, -1.135706482511056E+08, 1.163912115286715E+08, 1.334943342368873E+08,
2460903.500000000, A.D. 2025-Aug-16 00:00:00.0000, -1.246226488101449E+08, 1.039097690461395E+08, 1.350533960672608E+08,
2460910.500000000, A.D. 2025-Aug-23 00:00:00.0000, -1.350322080901634E+08, 9.089245885392830E+07, 1.359161187401390E+08,
2460917.500000000, A.D. 2025-Aug-30 00:00:00.0000, -1.447549418832734E+08, 7.741259259848702E+07, 1.360873805791226E+08,
2460924.500000000, A.D. 2025-Sep-06 00:00:00.0000, -1.537534427990289E+08, 6.354514731079128E+07, 1.355776275748248E+08,
2460931.500000000, A.D. 2025-Sep-13 00:00:00.0000, -1.619974661230266E+08, 4.936559049618322E+07, 1.344024345580558E+08,
2460938.500000000, A.D. 2025-Sep-20 00:00:00.0000, -1.694639255541866E+08, 3.494877944732594E+07, 1.325819736490702E+08,
2460945.500000000, A.D. 2025-Sep-27 00:00:00.0000, -1.761367164959307E+08, 2.036797139967183E+07, 1.301404190038814E+08,
2460952.500000000, A.D. 2025-Oct-04 00:00:00.0000, -1.820063943147759E+08, 5.693968682009459E+06, 1.271053167725692E+08,
2460959.500000000, A.D. 2025-Oct-11 00:00:00.0000, -1.870697372466737E+08, -9.005588496722206E+06, 1.235069468000334E+08,
2460966.500000000, A.D. 2025-Oct-18 00:00:00.0000, -1.913292242713118E+08, -2.366677761282917E+07, 1.193776990023801E+08,
2460973.500000000, A.D. 2025-Oct-25 00:00:00.0000, -1.947924575088804E+08, -3.822980138946429E+07, 1.147514829439929E+08,
2460980.500000000, A.D. 2025-Nov-01 00:00:00.0000, -1.974715562013353E+08, -5.263925718727085E+07, 1.096631844044914E+08,
2460987.500000000, A.D. 2025-Nov-08 00:00:00.0000, -1.993825456413866E+08, -6.684428243694258E+07, 1.041481781020008E+08,
2460994.500000000, A.D. 2025-Nov-15 00:00:00.0000, -2.005447600191866E+08, -8.079859292867909E+07, 9.824190154316497E+07,
2461001.500000000, A.D. 2025-Nov-22 00:00:00.0000, -2.009802734845114E+08, -9.446043155669661E+07, 9.197949141839753E+07,
2461008.500000000, A.D. 2025-Nov-29 00:00:00.0000, -2.007133700573329E+08, -1.077924440726378E+08, 8.539548127870986E+07,
2461015.500000000, A.D. 2025-Dec-06 00:00:00.0000, -1.997700613780972E+08, -1.207614986764414E+08, 7.852355729462188E+07,
2461022.500000000, A.D. 2025-Dec-13 00:00:00.0000, -1.981776554423573E+08, -1.333384679174214E+08, 7.139636706496891E+07,
2461029.500000000, A.D. 2025-Dec-20 00:00:00.0000, -1.959643739206165E+08, -1.454979850326645E+08, 6.404537573574890E+07,
2461036.500000000, A.D. 2025-Dec-27 00:00:00.0000, -1.931590183032627E+08, -1.572181831970117E+08, 5.650076384392825E+07,
2461043.500000000, A.D. 2026-Jan-03 00:00:00.0000, -1.897906840548992E+08, -1.684804273393384E+08, 4.879136102385204E+07,
2461050.500000000, A.D. 2026-Jan-10 00:00:00.0000, -1.858885194072087E+08, -1.792690463832704E+08, 4.094460980150980E+07,
2461057.500000000, A.D. 2026-Jan-17 00:00:00.0000, -1.814815247205239E+08, -1.895710715275350E+08, 3.298655417065037E+07,
2461064.500000000, A.D. 2026-Jan-24 00:00:00.0000, -1.765983882402711E+08, -1.993759846169686E+08, 2.494184819436031E+07,
2461071.500000000, A.D. 2026-Jan-31 00:00:00.0000, -1.712673540858376E+08, -2.086754794551091E+08, 1.683378043492083E+07,
2461078.500000000, A.D. 2026-Feb-07 00:00:00.0000, -1.655161183836991E+08, -2.174632379552887E+08, 8.684310566388026E+06,
2461085.500000000, A.D. 2026-Feb-14 00:00:00.0000, -1.593717494892479E+08, -2.257347221859201E+08, 5.141150487607121E+05,
2461092.500000000, A.D. 2026-Feb-21 00:00:00.0000, -1.528606284002299E+08, -2.334869821500205E+08, -7.657360722021520E+06,
2461099.500000000, A.D. 2026-Feb-28 00:00:00.0000, -1.460084072637306E+08, -2.407184780882290E+08, -1.581184574144405E+07,
2461106.500000000, A.D. 2026-Mar-07 00:00:00.0000, -1.388399851888087E+08, -2.474289188511977E+08, -2.393218392050360E+07,
2461113.500000000, A.D. 2026-Mar-14 00:00:00.0000, -1.313794960781565E+08, -2.536191180321829E+08, -3.200227365527216E+07,
2461120.500000000, A.D. 2026-Mar-21 00:00:00.0000, -1.236503045083271E+08, -2.592908641609598E+08, -4.000700747783603E+07,
2461127.500000000, A.D. 2026-Mar-28 00:00:00.0000, -1.156750097766660E+08, -2.644468030271980E+08, -4.793221238101004E+07,
2461134.500000000, A.D. 2026-Apr-04 00:00:00.0000, -1.074754570956694E+08, -2.690903321430222E+08, -5.576459149311462E+07,
2461141.500000000, A.D. 2026-Apr-11 00:00:00.0000, -9.907275427782701E+07, -2.732255067343344E+08, -6.349166763750778E+07,
2461148.500000000, A.D. 2026-Apr-18 00:00:00.0000, -9.048729257933818E+07, -2.768569563137572E+08, -7.110172913180891E+07,
2461155.500000000, A.D. 2026-Apr-25 00:00:00.0000, -8.173877067266926E+07, -2.799898109070762E+08, -7.858377805916482E+07,
2461162.500000000, A.D. 2026-May-02 00:00:00.0000, -7.284622090148798E+07, -2.826296360985532E+08, -8.592748115929703E+07,
2461169.500000000, A.D. 2026-May-09 00:00:00.0000, -6.382803702135559E+07, -2.847823761479380E+08, -9.312312342867118E+07,
2461176.500000000, A.D. 2026-May-16 00:00:00.0000, -5.470200249649149E+07, -2.864543042828146E+08, -1.001615644703423E+08,
2461183.500000000, A.D. 2026-May-23 00:00:00.0000, -4.548531885187355E+07, -2.876519784446647E+08, -1.070341974894098E+08,
2461190.500000000, A.D. 2026-May-30 00:00:00.0000, -3.619463579752796E+07, -2.883822015275041E+08, -1.137329106587666E+08,
2461197.500000000, A.D. 2026-Jun-06 00:00:00.0000, -2.684608315195436E+07, -2.886519887984666E+08, -1.202500510098814E+08,
2461204.500000000, A.D. 2026-Jun-13 00:00:00.0000, -1.745530066779142E+07, -2.884685417775431E+08, -1.265783910698058E+08,
2461211.500000000, A.D. 2026-Jun-20 00:00:00.0000, -8.037466080817804E+06, -2.878392251826575E+08, -1.327110978520184E+08,
2461218.500000000, A.D. 2026-Jun-27 00:00:00.0000, 1.392677058441628E+06, -2.867715468612424E+08, -1.386417039614300E+08,
2461225.500000000, A.D. 2026-Jul-04 00:00:00.0000, 1.082079187576090E+07, -2.852731411102399E+08, -1.443640807660819E+08,
2461232.500000000, A.D. 2026-Jul-11 00:00:00.0000, 2.023292131639180E+07, -2.833517551851006E+08, -1.498724135624084E+08,
2461239.500000000, A.D. 2026-Jul-18 00:00:00.0000, 2.961546208353809E+07, -2.810152386773779E+08, -1.551611786366862E+08,
2461246.500000000, A.D. 2026-Jul-25 00:00:00.0000, 3.895513942770690E+07, -2.782715354971275E+08, -1.602251221248326E+08,
2461253.500000000, A.D. 2026-Aug-01 00:00:00.0000, 4.823898285046487E+07, -2.751286782793349E+08, -1.650592405847974E+08,
2461260.500000000, A.D. 2026-Aug-08 00:00:00.0000, 5.745430293851907E+07, -2.715947850509604E+08, -1.696587632155253E+08,
2461267.500000000, A.D. 2026-Aug-15 00:00:00.0000, 6.658866973299185E+07, -2.676780575346909E+08, -1.740191356379614E+08,
2461274.500000000, A.D. 2026-Aug-22 00:00:00.0000, 7.562989185684267E+07, -2.633867797172179E+08, -1.781360049845469E+08,
2461281.500000000, A.D. 2026-Aug-29 00:00:00.0000, 8.456599409478067E+07, -2.587293179237860E+08, -1.820052061187907E+08,
2461288.500000000, A.D. 2026-Sep-05 00:00:00.0000, 9.338519554615219E+07, -2.537141251554161E+08, -1.856227493432689E+08,
$$EOE